[{"OBJECT_NAME":"STARLINK-4289","OBJECT_ID":"2022-076AQ","EPOCH":"2026-03-09T12:46:10.726176","MEAN_MOTION":15.08844956,"ECCENTRICITY":0.00016795,"INCLINATION":53.2167,"RA_OF_ASC_NODE":84.8281,"ARG_OF_PERICENTER":80.967,"MEAN_ANOMALY":279.1512,"EPHEMERIS_TYPE":0,"CLASSIFICATION_TYPE":"U","NORAD_CAT_ID":53024,"ELEMENT_SET_NO":999,"REV_AT_EPOCH":20296,"BSTAR":-8.59446e-5,"MEAN_MOTION_DOT":-1.656e-5,"MEAN_MOTION_DDOT":0},{"OBJECT_NAME":"CZ-2D R\/B","OBJECT_ID":"2010-027B","EPOCH":"2026-03-09T19:01:31.304352","MEAN_MOTION":15.02332282,"ECCENTRICITY":0.00475082,"INCLINATION":97.9913,"RA_OF_ASC_NODE":95.0303,"ARG_OF_PERICENTER":252.3591,"MEAN_ANOMALY":107.2442,"EPHEMERIS_TYPE":0,"CLASSIFICATION_TYPE":"U","NORAD_CAT_ID":36597,"ELEMENT_SET_NO":999,"REV_AT_EPOCH":85595,"BSTAR":0.00022535675,"MEAN_MOTION_DOT":2.983e-5,"MEAN_MOTION_DDOT":0}]
